[{"OBJECT_NAME":"STARLINK-30851","OBJECT_ID":"2023-170K","EPOCH":"2026-03-09T22:00:01.999584","MEAN_MOTION":15.27577842,"ECCENTRICITY":0.00014358,"INCLINATION":42.9995,"RA_OF_ASC_NODE":192.7124,"ARG_OF_PERICENTER":260.338,"MEAN_ANOMALY":216.0085,"EPHEMERIS_TYPE":0,"CLASSIFICATION_TYPE":"U","NORAD_CAT_ID":58215,"ELEMENT_SET_NO":999,"REV_AT_EPOCH":578,"BSTAR":0.00088140186,"MEAN_MOTION_DOT":0.0002407,"MEAN_MOTION_DDOT":0},{"OBJECT_NAME":"COSMOS 1408 DEB","OBJECT_ID":"1982-092ADS","EPOCH":"2026-03-09T15:14:01.495392","MEAN_MOTION":15.34178134,"ECCENTRICITY":0.0122957,"INCLINATION":82.1939,"RA_OF_ASC_NODE":124.7493,"ARG_OF_PERICENTER":254.6382,"MEAN_ANOMALY":104.1246,"EPHEMERIS_TYPE":0,"CLASSIFICATION_TYPE":"U","NORAD_CAT_ID":50404,"ELEMENT_SET_NO":999,"REV_AT_EPOCH":22516,"BSTAR":0.0029669,"MEAN_MOTION_DOT":0.00127192,"MEAN_MOTION_DDOT":0}]
